start=new Date('2023-04-29T00:00:00.000Z').valueOf();
sats=[{"NORAD_CAT_ID":"53595","OBJECT_TYPE":"PAYLOAD","EPOCH":"2023-04-28T08:30:52.745760","RCS_SIZE":"LARGE","MEAN_ELEMENT_THEORY":"SGP4","ELEMENT_SET_NO":"999","REV_AT_EPOCH":"3798","EPHEMERIS_TYPE":"0","PERIOD":"95.436","RA_OF_ASC_NODE":"261.3132","CENTER_NAME":"EARTH","MEAN_MOTION_DOT":"-0.00000044","FILE":"3895770","LAUNCH_DATE":"2022-08-28","OBJECT_NAME":"STARLINK-4684","COUNTRY_CODE":"US","MEAN_MOTION_DDOT":"0.0000000000000","ECCENTRICITY":"0.00010000","TIME_SYSTEM":"UTC","DECAY_DATE":null,"APOAPSIS":"540.384","BSTAR":"0.00001530300000","GP_ID":"230886799","MEAN_ANOMALY":"269.2706","REF_FRAME":"TEME","TLE_LINE2":"2 53595  53.2146 261.3132 0001000  90.8401 269.2706 15.08857440 37982","PERIAPSIS":"539.000","INCLINATION":"53.2146","CLASSIFICATION_TYPE":"U","MEAN_MOTION":"15.08857440","SEMIMAJOR_AXIS":"6917.827","SITE":"AFETR","OBJECT_ID":"2022-104H","ARG_OF_PERICENTER":"90.8401","TLE_LINE1":"1 53595U 22104H   23118.35477715 -.00000044  00000-0  15303-4 0  9995"},{"MEAN_ANOMALY":"286.1842","GP_ID":"230887548","BSTAR":"0.00015285000000","DECAY_DATE":null,"APOAPSIS":"540.617","TIME_SYSTEM":"UTC","TLE_LINE1":"1 53596U 22104J   23118.47619748  .00002145  00000-0  15285-3 0  9994","ARG_OF_PERICENTER":"73.9287","OBJECT_ID":"2022-104J","SITE":"AFETR","SEMIMAJOR_AXIS":"6917.894","MEAN_MOTION":"15.08835647","CLASSIFICATION_TYPE":"U","INCLINATION":"53.2165","TLE_LINE2":"2 53596  53.2165 260.6492 0001241  73.9287 286.1842 15.08835647 37676","PERIAPSIS":"538.900","REF_FRAME":"TEME","PERIOD":"95.438","EPHEMERIS_TYPE":"0","REV_AT_EPOCH":"3767","ELEMENT_SET_NO":"999","MEAN_ELEMENT_THEORY":"SGP4","RCS_SIZE":"LARGE","EPOCH":"2023-04-28T11:25:43.462272","OBJECT_TYPE":"PAYLOAD","NORAD_CAT_ID":"53596","ECCENTRICITY":"0.00012410","MEAN_MOTION_DDOT":"0.0000000000000","COUNTRY_CODE":"US","OBJECT_NAME":"STARLINK-4668","LAUNCH_DATE":"2022-08-28","FILE":"3895770","MEAN_MOTION_DOT":"0.00002145","CENTER_NAME":"EARTH","RA_OF_ASC_NODE":"260.6492"},{"MEAN_ELEMENT_THEORY":"SGP4","RCS_SIZE":"LARGE","OBJECT_TYPE":"PAYLOAD","EPOCH":"2023-04-28T11:31:02.407008","NORAD_CAT_ID":"53597","PERIOD":"95.437","EPHEMERIS_TYPE":"0","ELEMENT_SET_NO":"999","REV_AT_EPOCH":"3767","LAUNCH_DATE":"2022-08-28","OBJECT_NAME":"STARLINK-4682","MEAN_MOTION_DOT":"-0.00001927","FILE":"3895770","RA_OF_ASC_NODE":"260.6694","CENTER_NAME":"EARTH","ECCENTRICITY":"0.00009080","MEAN_MOTION_DDOT":"0.0000000000000","COUNTRY_CODE":"US","BSTAR":"-0.00010298000000","DECAY_DATE":null,"APOAPSIS":"540.344","TIME_SYSTEM":"UTC","MEAN_ANOMALY":"213.5455","GP_ID":"230885798","SEMIMAJOR_AXIS":"6917.851","MEAN_MOTION":"15.08849741","CLASSIFICATION_TYPE":"U","REF_FRAME":"TEME","TLE_LINE2":"2 53597  53.2163 260.6694 0000908 146.5595 213.5455 15.08849741 37671","PERIAPSIS":"539.087","INCLINATION":"53.2163","TLE_LINE1":"1 53597U 22104K   23118.47988897 -.00001927  00000-0 -10298-3 0  9997","ARG_OF_PERICENTER":"146.5595","OBJECT_ID":"2022-104K","SITE":"AFETR"},{"MEAN_ANOMALY":"262.1641","GP_ID":"230886048","BSTAR":"0.00000811810000","APOAPSIS":"540.346","DECAY_DATE":null,"TIME_SYSTEM":"UTC","TLE_LINE1":"1 53598U 22104L   23118.46883770 -.00000159  00000-0  81181-5 0  9997","ARG_OF_PERICENTER":"97.9454","OBJECT_ID":"2022-104L","SITE":"AFETR","SEMIMAJOR_AXIS":"6917.849","MEAN_MOTION":"15.08850264","CLASSIFICATION_TYPE":"U","INCLINATION":"53.2156","TLE_LINE2":"2 53598  53.2156 260.6038 0000914  97.9454 262.1641 15.08850264 37675","PERIAPSIS":"539.082","REF_FRAME":"TEME","PERIOD":"95.437","EPHEMERIS_TYPE":"0","REV_AT_EPOCH":"3767","ELEMENT_SET_NO":"999","MEAN_ELEMENT_THEORY":"SGP4","RCS_SIZE":"LARGE","EPOCH":"2023-04-28T11:15:07.577280","OBJECT_TYPE":"PAYLOAD","NORAD_CAT_ID":"53598","ECCENTRICITY":"0.00009140","MEAN_MOTION_DDOT":"0.0000000000000","COUNTRY_CODE":"US","OBJECT_NAME":"STARLINK-4676","LAUNCH_DATE":"2022-08-28","MEAN_MOTION_DOT":"-0.00000159","FILE":"3895770","CENTER_NAME":"EARTH","RA_OF_ASC_NODE":"260.6038"},{"NORAD_CAT_ID":"53600","OBJECT_TYPE":"PAYLOAD","EPOCH":"2023-04-28T12:39:53.933184","RCS_SIZE":"LARGE","MEAN_ELEMENT_THEORY":"SGP4","ELEMENT_SET_NO":"999","REV_AT_EPOCH":"3768","EPHEMERIS_TYPE":"0","PERIOD":"95.437","RA_OF_ASC_NODE":"260.2592","CENTER_NAME":"EARTH","FILE":"3895770","MEAN_MOTION_DOT":"0.00000575","LAUNCH_DATE":"2022-08-28","OBJECT_NAME":"STARLINK-4677","COUNTRY_CODE":"US","MEAN_MOTION_DDOT":"0.0000000000000","ECCENTRICITY":"0.00005050","TIME_SYSTEM":"UTC","DECAY_DATE":null,"APOAPSIS":"540.059","BSTAR":"0.00005415000000","GP_ID":"230887298","MEAN_ANOMALY":"232.4325","PERIAPSIS":"539.361","TLE_LINE2":"2 53600  53.2140 260.2592 0000505 127.6713 232.4325 15.08851623 37688","REF_FRAME":"TEME","INCLINATION":"53.2140","CLASSIFICATION_TYPE":"U","MEAN_MOTION":"15.08851623","SEMIMAJOR_AXIS":"6917.845","SITE":"AFETR","OBJECT_ID":"2022-104N","TLE_LINE1":"1 53600U 22104N   23118.52770756  .00000575  00000-0  54150-4 0  9993","ARG_OF_PERICENTER":"127.6713"},{"COUNTRY_CODE":"US","ECCENTRICITY":"0.00003560","MEAN_MOTION_DDOT":"0.0000000000000","FILE":"3895921","MEAN_MOTION_DOT":"-0.00000238","CENTER_NAME":"EARTH","RA_OF_ASC_NODE":"259.4368","OBJECT_NAME":"STARLINK-4675","LAUNCH_DATE":"2022-08-28","EPHEMERIS_TYPE":"0","REV_AT_EPOCH":"3702","ELEMENT_SET_NO":"999","PERIOD":"95.437","EPOCH":"2023-04-28T17:41:57.973056","OBJECT_TYPE":"PAYLOAD","NORAD_CAT_ID":"53601","MEAN_ELEMENT_THEORY":"SGP4","RCS_SIZE":"LARGE","SITE":"AFETR","ARG_OF_PERICENTER":"74.4881","TLE_LINE1":"1 53601U 22104P   23118.73747654 -.00000238  00000-0  30879-5 0  9998","OBJECT_ID":"2022-104P","CLASSIFICATION_TYPE":"U","INCLINATION":"53.2147","REF_FRAME":"TEME","TLE_LINE2":"2 53601  53.2147 259.4368 0000356  74.4881 285.6151 15.08851687 37021","PERIAPSIS":"539.463","SEMIMAJOR_AXIS":"6917.845","MEAN_MOTION":"15.08851687","GP_ID":"230893208","MEAN_ANOMALY":"285.6151","APOAPSIS":"539.956","DECAY_DATE":null,"TIME_SYSTEM":"UTC","BSTAR":"0.00000308790000"},{"PERIOD":"95.435","REV_AT_EPOCH":"130","ELEMENT_SET_NO":"999","EPHEMERIS_TYPE":"0","RCS_SIZE":"LARGE","MEAN_ELEMENT_THEORY":"SGP4","NORAD_CAT_ID":"53602","EPOCH":"2023-04-28T14:00:01.000224","OBJECT_TYPE":"PAYLOAD","MEAN_MOTION_DDOT":"0.0000000000000","ECCENTRICITY":"0.00013680","COUNTRY_CODE":"US","OBJECT_NAME":"STARLINK-4648","LAUNCH_DATE":"2022-08-28","CENTER_NAME":"EARTH","RA_OF_ASC_NODE":"255.2146","FILE":"3895770","MEAN_MOTION_DOT":"-0.00075946","MEAN_ANOMALY":"115.0960","GP_ID":"230886298","BSTAR":"-0.00479940000000","TIME_SYSTEM":"UTC","APOAPSIS":"540.572","DECAY_DATE":null,"OBJECT_ID":"2022-104Q","ARG_OF_PERICENTER":"94.7975","TLE_LINE1":"1 53602U 22104Q   23118.58334491 -.00075946  00000-0 -47994-2 0  9995","SITE":"AFETR","MEAN_MOTION":"15.08879067","SEMIMAJOR_AXIS":"6917.761","INCLINATION":"53.2158","PERIAPSIS":"538.680","TLE_LINE2":"2 53602  53.2158 255.2146 0001368  94.7975 115.0960 15.08879067  1303","REF_FRAME":"TEME","CLASSIFICATION_TYPE":"U"},{"COUNTRY_CODE":"US","ECCENTRICITY":"0.00013090","MEAN_MOTION_DDOT":"0.0000000000000","MEAN_MOTION_DOT":"-0.00002559","FILE":"3895770","CENTER_NAME":"EARTH","RA_OF_ASC_NODE":"255.8194","OBJECT_NAME":"STARLINK-4692","LAUNCH_DATE":"2022-08-28","EPHEMERIS_TYPE":"0","REV_AT_EPOCH":"3774","ELEMENT_SET_NO":"999","PERIOD":"95.437","EPOCH":"2023-04-28T12:00:53.076384","OBJECT_TYPE":"PAYLOAD","NORAD_CAT_ID":"53603","MEAN_ELEMENT_THEORY":"SGP4","RCS_SIZE":"LARGE","SITE":"AFETR","TLE_LINE1":"1 53603U 22104R   23118.50061431 -.00002559  00000-0 -14270-3 0  9991","ARG_OF_PERICENTER":"95.3988","OBJECT_ID":"2022-104R","CLASSIFICATION_TYPE":"U","INCLINATION":"53.2134","PERIAPSIS":"538.817","TLE_LINE2":"2 53603  53.2134 255.8194 0001309  95.3988 264.7153 15.08847527 37742","REF_FRAME":"TEME","SEMIMAJOR_AXIS":"6917.857","MEAN_MOTION":"15.08847527","GP_ID":"230886548","MEAN_ANOMALY":"264.7153","DECAY_DATE":null,"APOAPSIS":"540.628","TIME_SYSTEM":"UTC","BSTAR":"-0.00014270000000"},{"MEAN_MOTION_DDOT":"0.0000000000000","ECCENTRICITY":"0.00013950","COUNTRY_CODE":"US","LAUNCH_DATE":"2022-08-28","OBJECT_NAME":"STARLINK-4690","RA_OF_ASC_NODE":"253.6830","CENTER_NAME":"EARTH","FILE":"3895921","MEAN_MOTION_DOT":"-0.00072439","PERIOD":"95.435","ELEMENT_SET_NO":"999","REV_AT_EPOCH":"3711","EPHEMERIS_TYPE":"0","RCS_SIZE":"LARGE","MEAN_ELEMENT_THEORY":"SGP4","NORAD_CAT_ID":"53604","OBJECT_TYPE":"PAYLOAD","EPOCH":"2023-04-28T22:00:00.999936","OBJECT_ID":"2022-104S","ARG_OF_PERICENTER":"83.8942","TLE_LINE1":"1 53604U 22104S   23118.91667824 -.00072439  00000-0 -45743-2 0  9997","SITE":"AFETR","MEAN_MOTION":"15.08881943","SEMIMAJOR_AXIS":"6917.752","TLE_LINE2":"2 53604  53.2154 253.6830 0001395  83.8942 152.3898 15.08881943 37114","REF_FRAME":"TEME","PERIAPSIS":"538.652","INCLINATION":"53.2154","CLASSIFICATION_TYPE":"U","MEAN_ANOMALY":"152.3898","GP_ID":"230893703","BSTAR":"-0.00457430000000","TIME_SYSTEM":"UTC","APOAPSIS":"540.582","DECAY_DATE":null},{"MEAN_ANOMALY":"306.5379","GP_ID":"230887549","BSTAR":"-0.00023123000000","TIME_SYSTEM":"UTC","DECAY_DATE":null,"APOAPSIS":"540.432","OBJECT_ID":"2022-104T","TLE_LINE1":"1 53605U 22104T   23118.39890973 -.00003966  00000-0 -23123-3 0  9991","ARG_OF_PERICENTER":"53.5705","SITE":"AFETR","MEAN_MOTION":"15.08840725","SEMIMAJOR_AXIS":"6917.878","TLE_LINE2":"2 53605  53.2146 260.8801 0000996  53.5705 306.5379 15.08840725 37661","REF_FRAME":"TEME","PERIAPSIS":"539.054","INCLINATION":"53.2146","CLASSIFICATION_TYPE":"U","PERIOD":"95.438","ELEMENT_SET_NO":"999","REV_AT_EPOCH":"3766","EPHEMERIS_TYPE":"0","RCS_SIZE":"LARGE","MEAN_ELEMENT_THEORY":"SGP4","NORAD_CAT_ID":"53605","OBJECT_TYPE":"PAYLOAD","EPOCH":"2023-04-28T09:34:25.800672","MEAN_MOTION_DDOT":"0.0000000000000","ECCENTRICITY":"0.00009960","COUNTRY_CODE":"US","LAUNCH_DATE":"2022-08-28","OBJECT_NAME":"STARLINK-4693","RA_OF_ASC_NODE":"260.8801","CENTER_NAME":"EARTH","FILE":"3895770","MEAN_MOTION_DOT":"-0.00003966"}];
